*******************************************************************************
Revised: Jul 31, 2013                  Earth                                399
 
PHYSICAL PROPERTIES (revised Sep 18, 2013):
 Mean radius, km          = 6371.01+-0.01   Mass, 10^24 kg = 5.97219+-0.0006
 Equ. radius, km          = 6378.14+-0.01   Mass layers:
 Polar axis, km           = 6356.752          Atmos          = 5.1   x 10^18 kg
 Flattening               = 1/298.257         oceans         = 1.4   x 10^21 kg
 Density, gm cm^-3        = 5.515             crust          = 2.6   x 10^22 kg
 J2  (GEM T2, 1990)       = 0.0010826265      mantle         = 4.043 x 10^24 kg
 gp, m s^-2 (polar)       = 9.8321863685      outer core     = 1.835 x 10^24 kg
 ge, m s^-2 (equatorial)  = 9.7803267715      inner core     = 9.675 x 10^22 kg
 go, m s^-2               = 9.82022         Fluid core rad   = 3480 km
 GM, km^3 s^-2            = 398600.440      Inner core rad   = 1215 km
 Mean rot. rate, rad s^-1 = 7.292115*10^-5  Surface Area:
 Sidereal period, hr      = 23.93419          land           = 1.48 x 10^8 km
 Mean solar day, days     = 1.002738          sea            = 3.62 x 10^8 km
 Moment of inertia        = 0.3308          Love no., k2     = 0.299
 Mean Temperature, K      = 270             Atm. pressure    = 1.0 bar
 Solar constant, W/m^2    = 1367.6          Vis. mag. V(1,0) = -3.86
 Volume, 10^10 km^3       = 108.321         Geometric albedo = 0.367 

DYNAMICAL CHARACTERISTICS:
 Obliquity to orbit, deg  = 23.45           Sidereal period  = 1.0000174  yrs
 Orbit velocity, km s^-1  = 29.7859         Sidereal period  = 365.25636  days
 Mean daily motion, n     = 0.9856474 deg/d Escape velocity  = 11.186 km s^-1
 Hill's sphere radius     = 234.9           Magnetic moment  = 0.61 gauss Rp^3
*******************************************************************************
 
 
*******************************************************************************
Ephemeris / WWW_USER Wed Dec  7 01:19:04 2016 Pasadena, USA      / Horizons    
*******************************************************************************
Target body name: Earth (399)                     {source: DE431mx}
Center body name: Sun (10)                        {source: DE431mx}
Center-site name: BODY CENTER
*******************************************************************************
Start time      : A.D. 1996-Dec-05 00:00:00.0000 TDB
Stop  time      : A.D. 2000-Jan-04 00:00:00.0000 TDB
Step-size       : 1440 minutes
*******************************************************************************
Center geodetic : 0.00000000,0.00000000,0.0000000 {E-lon(deg),Lat(deg),Alt(km)}
Center cylindric: 0.00000000,0.00000000,0.0000000 {E-lon(deg),Dxy(km),Dz(km)}
Center radii    : 696000.0 x 696000.0 x 696000.0 k{Equator, meridian, pole}    
Output units    : KM-S                                                         
Output type     : GEOMETRIC cartesian states
Output format   : 2 (position and velocity)
Reference frame : ICRF/J2000.0                                                 
Coordinate systm: Ecliptic and Mean Equinox of Reference Epoch                 
*******************************************************************************
JDTDB
   X     Y     Z
   VX    VY    VZ
*******************************************************************************
$$SOE
2451382.500000000 = A.D. 1999-Jul-23 00:00:00.0000 TDB 
   7.541091790379529E+07 -1.319605221464479E+08 -7.675696620941162E+02
   2.536867294986268E+01  1.467298481167715E+01  3.024280831409598E-04
2451383.500000000 = A.D. 1999-Jul-24 00:00:00.0000 TDB 
   7.759197650566368E+07 -1.306743151502615E+08 -7.316996798068285E+02
   2.511767612704129E+01  1.509960515889350E+01  5.249387797841010E-04
2451384.500000000 = A.D. 1999-Jul-25 00:00:00.0000 TDB 
   7.975106058047022E+07 -1.293514352405741E+08 -6.774921688437462E+02
   2.486002077778562E+01  1.552189021655550E+01  7.255105852381760E-04
2451385.500000000 = A.D. 1999-Jul-26 00:00:00.0000 TDB 
   8.188759922523755E+07 -1.279922580392470E+08 -6.072031313776970E+02
   2.459580703639454E+01  1.593981737269048E+01  8.958233514331226E-04
2451386.500000000 = A.D. 1999-Jul-27 00:00:00.0000 TDB 
   8.400102972287086E+07 -1.265971606493398E+08 -5.237981481254101E+02
   2.432512352950376E+01  1.635337507802812E+01  1.027813805052347E-03
2451387.500000000 = A.D. 1999-Jul-28 00:00:00.0000 TDB 
   8.609079634083785E+07 -1.251665206979561E+08 -4.309160708487034E+02
   2.404804240175879E+01  1.676256249167555E+01  1.114038766885095E-03
2451388.500000000 = A.D. 1999-Jul-29 00:00:00.0000 TDB 
   8.815634866917016E+07 -1.237007155177393E+08 -3.327924395278096E+02
   2.376461382238868E+01  1.716738654811746E+01  1.148235888373428E-03
2451389.500000000 = A.D. 1999-Jul-30 00:00:00.0000 TDB 
   9.019713950687942E+07 -1.222001217019103E+08 -2.341284435465932E+02
   2.347486124770941E+01  1.756785626440976E+01  1.126007087700387E-03
2451390.500000000 = A.D. 1999-Jul-31 00:00:00.0000 TDB 
   9.221262241809146E+07 -1.206651152563436E+08 -1.398995612561703E+02
   2.317877870329889E+01  1.796397474137316E+01  1.045510433229424E-03
2451391.500000000 = A.D. 1999-Aug-01 00:00:00.0000 TDB 
   9.420224917463282E+07 -1.190960725073061E+08 -5.510857762396336E+01
   2.287633097290779E+01  1.835572987114837E+01  9.080363481510645E-04
2451392.500000000 = A.D. 1999-Aug-02 00:00:00.0000 TDB 
   9.616546735231549E+07 -1.174933718230963E+08  1.550254569947720E+01
   2.256745695666930E+01  1.874308499146483E+01  7.183718201719813E-04
2451393.500000000 = A.D. 1999-Aug-03 00:00:00.0000 TDB 
   9.810171834472021E+07 -1.158573961065657E+08  6.776129340380430E+01
   2.225207589597548E+01  1.912597052471605E+01  4.849073293531347E-04
2451394.500000000 = A.D. 1999-Aug-04 00:00:00.0000 TDB 
   1.000104360203457E+08 -1.141885359446544E+08  9.837113522738218E+01
   2.193009596749941E+01  1.950427719298457E+01  2.194826924597493E-04
2451395.500000000 = A.D. 1999-Aug-05 00:00:00.0000 TDB 
   1.018910462138844E+08 -1.124871932651703E+08  1.051935050413013E+02
   2.160142498945478E+01  1.987785111214339E+01 -6.302993590523442E-05
2451396.500000000 = A.D. 1999-Aug-06 00:00:00.0000 TDB 
   1.037429672370161E+08 -1.107537853192534E+08  8.748110933601856E+01
   2.126598334997075E+01  2.024649129909822E+01 -3.454468471506544E-04
2451397.500000000 = A.D. 1999-Aug-07 00:00:00.0000 TDB 
   1.055656116054347E+08 -1.089887487318364E+08  4.603291105479002E+01
   2.092371918375899E+01  2.060995088034331E+01 -6.093799810118483E-04
2451398.500000000 = A.D. 1999-Aug-08 00:00:00.0000 TDB 
   1.073583891442960E+08 -1.071925432161779E+08 -1.676570893824100E+01
   2.057462479686478E+01  2.096794402006598E+01 -8.367895204974829E-04
2451399.500000000 = A.D. 1999-Aug-09 00:00:00.0000 TDB 
   1.091207114706879E+08 -1.053656543748367E+08 -9.705393088608980E+01
   2.021875147022720E+01  2.132016032034135E+01 -1.011897392233507E-03
2451400.500000000 = A.D. 1999-Aug-10 00:00:00.0000 TDB 
   1.108519975250670E+08 -1.035085949322746E+08 -1.897766193449497E+02
   1.985621812207803E+01  2.166628641797158E+01 -1.123137534136731E-03
2451401.500000000 = A.D. 1999-Aug-11 00:00:00.0000 TDB 
   1.125516794241942E+08 -1.016219039096858E+08 -2.891170645356178E+02
   1.948720954307006E+01  2.200603112331288E+01 -1.164621763455997E-03
2451402.500000000 = A.D. 1999-Aug-12 00:00:00.0000 TDB 
   1.142192076493915E+08 -9.970614370131668E+07 -3.890169822350144E+02
   1.911196293737438E+01  2.233914768920326E+01 -1.136631091045004E-03
2451403.500000000 = A.D. 1999-Aug-13 00:00:00.0000 TDB 
   1.158540546704364E+08 -9.776189558491680E+07 -4.836891276761889E+02
   1.873074607849481E+01  2.266544695498063E+01 -1.044962498093938E-03
2451404.500000000 = A.D. 1999-Aug-14 00:00:00.0000 TDB 
   1.174557165520139E+08 -9.578975460777196E+07 -5.680323893800378E+02
   1.834383365149926E+01  2.298479859498418E+01 -8.994020978736472E-04
2451405.500000000 = A.D. 1999-Aug-15 00:00:00.0000 TDB 
   1.190237126782675E+08 -9.379032482540844E+07 -6.378968923240900E+02
   1.795148823082915E+01  2.329712235233581E+01 -7.118805413810492E-04
2451406.500000000 = A.D. 1999-Aug-16 00:00:00.0000 TDB 
   1.205575841722869E+08 -9.176421555929565E+07 -6.901961558908224E+02
   1.755394935129757E+01  2.360237412488255E+01 -4.948519766099224E-04
2451407.500000000 = A.D. 1999-Aug-17 00:00:00.0000 TDB 
   1.220568917272146E+08 -8.971203889276573E+07 -7.229010266773403E+02
   1.715143055234058E+01  2.390053194579914E+01 -2.602064181953523E-04
2451408.500000000 = A.D. 1999-Aug-18 00:00:00.0000 TDB 
   1.235212134443997E+08 -8.763440825597036E+07 -7.349651195928454E+02
   1.674412200631944E+01  2.419158515884098E+01 -1.876169532621930E-05
2451409.500000000 = A.D. 1999-Aug-19 00:00:00.0000 TDB 
   1.249501430328596E+08 -8.553193775855514E+07 -7.262272723019123E+02
   1.633219578735951E+01  2.447552798466806E+01  2.197890699680016E-04
2451410.500000000 = A.D. 1999-Aug-20 00:00:00.0000 TDB 
   1.263432884880282E+08 -8.340524189550379E+07 -6.973225997537374E+02
   1.591581136346085E+01  2.475235718834800E+01  4.466565330911720E-04
2451411.500000000 = A.D. 1999-Aug-21 00:00:00.0000 TDB 
   1.277002711946195E+08 -8.125493531205863E+07 -6.496181946024299E+02
   1.549511972091408E+01  2.502207285112767E+01  6.536313261165105E-04
2451412.500000000 = A.D. 1999-Aug-22 00:00:00.0000 TDB 
   1.290207252921412E+08 -7.908163241103613E+07 -5.851761872656643E+02
   1.507026521222311E+01  2.528468104195281E+01  8.327946989279411E-04
2451413.500000000 = A.D. 1999-Aug-23 00:00:00.0000 TDB 
   1.303042970841589E+08 -7.688594669188872E+07 -5.067363283410668E+02
   1.464138467552620E+01  2.554019714471978E+01  9.763722355327076E-04
